{"fetched_at":"2026-07-17T06:37:51.309Z","source":"https://celestrak.org/NORAD/elements/gp.php?GROUP=oneweb&FORMAT=JSON","constellation":"oneweb","records":[{"OBJECT_NAME":"ONEWEB-0558","OBJECT_ID":"2023-043P","EPOCH":"2026-07-16T14:05:35.172096","CLASSIFICATION_TYPE":"U","MEAN_MOTION":13.2182556,"ECCENTRICITY":0.0002423,"INCLINATION":87.9235,"RA_OF_ASC_NODE":238.1274,"ARG_OF_PERICENTER":94.7702,"MEAN_ANOMALY":265.3709,"EPHEMERIS_TYPE":0,"NORAD_CAT_ID":56059,"ELEMENT_SET_NO":999,"REV_AT_EPOCH":16212,"BSTAR":-0.00011952,"MEAN_MOTION_DOT":-3.6e-7,"MEAN_MOTION_DDOT":0},{"OBJECT_NAME":"ONEWEB-0559","OBJECT_ID":"2023-043Q","EPOCH":"2026-07-16T15:37:38.044992","CLASSIFICATION_TYPE":"U","MEAN_MOTION":13.218244,"ECCENTRICITY":0.0002236,"INCLINATION":87.9235,"RA_OF_ASC_NODE":238.11,"ARG_OF_PERICENTER":100.0722,"MEAN_ANOMALY":260.0664,"EPHEMERIS_TYPE":0,"NORAD_CAT_ID":56060,"ELEMENT_SET_NO":999,"REV_AT_EPOCH":16214,"BSTAR":-0.000090125,"MEAN_MOTION_DOT":-2.4e-7,"MEAN_MOTION_DDOT":0},{"OBJECT_NAME":"ONEWEB-0566","OBJECT_ID":"2023-043R","EPOCH":"2026-07-16T15:27:56.786400","CLASSIFICATION_TYPE":"U","MEAN_MOTION":13.21824485,"ECCENTRICITY":0.0002335,"INCLINATION":87.9235,"RA_OF_ASC_NODE":238.1092,"ARG_OF_PERICENTER":102.0193,"MEAN_ANOMALY":258.1202,"EPHEMERIS_TYPE":0,"NORAD_CAT_ID":56061,"ELEMENT_SET_NO":999,"REV_AT_EPOCH":16212,"BSTAR":-0.00014211,"MEAN_MOTION_DOT":-4.6e-7,"MEAN_MOTION_DDOT":0},{"OBJECT_NAME":"ONEWEB-0568","OBJECT_ID":"2023-043S","EPOCH":"2026-07-16T13:46:12.228096","CLASSIFICATION_TYPE":"U","MEAN_MOTION":13.16596022,"ECCENTRICITY":0.0002107,"INCLINATION":87.9077,"RA_OF_ASC_NODE":222.9337,"ARG_OF_PERICENTER":85.3653,"MEAN_ANOMALY":274.7719,"EPHEMERIS_TYPE":0,"NORAD_CAT_ID":56062,"ELEMENT_SET_NO":999,"REV_AT_EPOCH":16284,"BSTAR":-0.000030791,"MEAN_MOTION_DOT":1e-8,"MEAN_MOTION_DDOT":0},{"OBJECT_NAME":"ONEWEB-0574","OBJECT_ID":"2023-043T","EPOCH":"2026-07-16T15:18:16.436736","CLASSIFICATION_TYPE":"U","MEAN_MOTION":13.21825885,"ECCENTRICITY":0.0001895,"INCLINATION":87.924,"RA_OF_ASC_NODE":238.1155,"ARG_OF_PERICENTER":94.2654,"MEAN_ANOMALY":265.8696,"EPHEMERIS_TYPE":0,"NORAD_CAT_ID":56063,"ELEMENT_SET_NO":999,"REV_AT_EPOCH":16216,"BSTAR":-0.0001255,"MEAN_MOTION_DOT":-3.9e-7,"MEAN_MOTION_DDOT":0},{"OBJECT_NAME":"ONEWEB-0575","OBJECT_ID":"2023-043U","EPOCH":"2026-07-16T13:37:04.683648","CLASSIFICATION_TYPE":"U","MEAN_MOTION":13.16595261,"ECCENTRICITY":0.0001742,"INCLINATION":87.9077,"RA_OF_ASC_NODE":222.9312,"ARG_OF_PERICENTER":84.2347,"MEAN_ANOMALY":275.8982,"EPHEMERIS_TYPE":0,"NORAD_CAT_ID":56064,"ELEMENT_SET_NO":999,"REV_AT_EPOCH":16283,"BSTAR":-0.00027879,"MEAN_MOTION_DOT":-9.4e-7,"MEAN_MOTION_DDOT":0},{"OBJECT_NAME":"ONEWEB-0576","OBJECT_ID":"2023-043V","EPOCH":"2026-07-16T14:59:08.770848","CLASSIFICATION_TYPE":"U","MEAN_MOTION":13.16595604,"ECCENTRICITY":0.000189,"INCLINATION":87.9083,"RA_OF_ASC_NODE":222.9287,"ARG_OF_PERICENTER":89.0121,"MEAN_ANOMALY":271.1226,"EPHEMERIS_TYPE":0,"NORAD_CAT_ID":56065,"ELEMENT_SET_NO":999,"REV_AT_EPOCH":16283,"BSTAR":-0.00022463,"MEAN_MOTION_DOT":-7.3e-7,"MEAN_MOTION_DDOT":0},{"OBJECT_NAME":"ONEWEB-0577","OBJECT_ID":"2023-043W","EPOCH":"2026-07-16T15:08:16.646208","CLASSIFICATION_TYPE":"U","MEAN_MOTION":13.16595819,"ECCENTRICITY":0.0001333,"INCLINATION":87.9081,"RA_OF_ASC_NODE":222.9249,"ARG_OF_PERICENTER":83.6989,"MEAN_ANOMALY":276.4294,"EPHEMERIS_TYPE":0,"NORAD_CAT_ID":56066,"ELEMENT_SET_NO":999,"REV_AT_EPOCH":16286,"BSTAR":-0.000089246,"MEAN_MOTION_DOT":-2.1e-7,"MEAN_MOTION_DDOT":0},{"OBJECT_NAME":"ONEWEB-0578","OBJECT_ID":"2023-043X","EPOCH":"2026-07-16T14:58:53.607648","CLASSIFICATION_TYPE":"U","MEAN_MOTION":13.21826311,"ECCENTRICITY":0.0002119,"INCLINATION":87.9238,"RA_OF_ASC_NODE":238.1147,"ARG_OF_PERICENTER":87.4813,"MEAN_ANOMALY":272.6563,"EPHEMERIS_TYPE":0,"NORAD_CAT_ID":56067,"ELEMENT_SET_NO":999,"REV_AT_EPOCH":16212,"BSTAR":0.000050066,"MEAN_MOTION_DOT":3.4e-7,"MEAN_MOTION_DDOT":0},{"OBJECT_NAME":"ONEWEB-0579","OBJECT_ID":"2023-043Y","EPOCH":"2026-07-16T14:46:44.783040","CLASSIFICATION_TYPE":"U","MEAN_MOTION":13.2182566,"ECCENTRICITY":0.0002076,"INCLINATION":87.9239,"RA_OF_ASC_NODE":238.1147,"ARG_OF_PERICENTER":102.6737,"MEAN_ANOMALY":257.4629,"EPHEMERIS_TYPE":0,"NORAD_CAT_ID":56068,"ELEMENT_SET_NO":999,"REV_AT_EPOCH":16213,"BSTAR":-0.00050028,"MEAN_MOTION_DOT":-0.00000194,"MEAN_MOTION_DDOT":0},{"OBJECT_NAME":"ONEWEB-0581","OBJECT_ID":"2023-043Z","EPOCH":"2026-07-16T13:27:57.566016","CLASSIFICATION_TYPE":"U","MEAN_MOTION":13.16595471,"ECCENTRICITY":0.0001509,"INCLINATION":87.9071,"RA_OF_ASC_NODE":222.9493,"ARG_OF_PERICENTER":90.833,"MEAN_ANOMALY":269.2973,"EPHEMERIS_TYPE":0,"NORAD_CAT_ID":56069,"ELEMENT_SET_NO":999,"REV_AT_EPOCH":16282,"BSTAR":-0.0002115,"MEAN_MOTION_DOT":-6.8e-7,"MEAN_MOTION_DDOT":0},{"OBJECT_NAME":"ONEWEB-0609","OBJECT_ID":"2023-043AA","EPOCH":"2026-07-16T14:46:25.287744","CLASSIFICATION_TYPE":"U","MEAN_MOTION":13.15547344,"ECCENTRICITY":0.0002127,"INCLINATION":87.8981,"RA_OF_ASC_NODE":253.3472,"ARG_OF_PERICENTER":96.9499,"MEAN_ANOMALY":263.1873,"EPHEMERIS_TYPE":0,"NORAD_CAT_ID":56070,"ELEMENT_SET_NO":999,"REV_AT_EPOCH":16030,"BSTAR":0.00034694,"MEAN_MOTION_DOT":0.00000143,"MEAN_MOTION_DDOT":0},{"OBJECT_NAME":"ONEWEB-0613","OBJECT_ID":"2023-043AB","EPOCH":"2026-07-16T14:43:00.066144","CLASSIFICATION_TYPE":"U","MEAN_MOTION":13.15548219,"ECCENTRICITY":0.0002213,"INCLINATION":87.8982,"RA_OF_ASC_NODE":253.3603,"ARG_OF_PERICENTER":103.8154,"MEAN_ANOMALY":256.3223,"EPHEMERIS_TYPE":0,"NORAD_CAT_ID":56071,"ELEMENT_SET_NO":999,"REV_AT_EPOCH":16030,"BSTAR":0.00035762,"MEAN_MOTION_DOT":0.00000147,"MEAN_MOTION_DDOT":0},{"OBJECT_NAME":"ONEWEB-0630","OBJECT_ID":"2023-043AC","EPOCH":"2026-07-16T14:36:08.788320","CLASSIFICATION_TYPE":"U","MEAN_MOTION":13.1554958,"ECCENTRICITY":0.0002154,"INCLINATION":87.8989,"RA_OF_ASC_NODE":253.3347,"ARG_OF_PERICENTER":103.4475,"MEAN_ANOMALY":256.6896,"EPHEMERIS_TYPE":0,"NORAD_CAT_ID":56072,"ELEMENT_SET_NO":999,"REV_AT_EPOCH":16029,"BSTAR":0.00045018,"MEAN_MOTION_DOT":0.00000182,"MEAN_MOTION_DDOT":0},{"OBJECT_NAME":"ONEWEB-0632","OBJECT_ID":"2023-043AD","EPOCH":"2026-07-16T12:39:47.754720","CLASSIFICATION_TYPE":"U","MEAN_MOTION":13.15548895,"ECCENTRICITY":0.000194,"INCLINATION":87.8968,"RA_OF_ASC_NODE":253.3657,"ARG_OF_PERICENTER":98.4159,"MEAN_ANOMALY":261.7191,"EPHEMERIS_TYPE":0,"NORAD_CAT_ID":56073,"ELEMENT_SET_NO":999,"REV_AT_EPOCH":16028,"BSTAR":-0.00067429,"MEAN_MOTION_DOT":-0.00000241,"MEAN_MOTION_DDOT":0},{"OBJECT_NAME":"ONEWEB-0633","OBJECT_ID":"2023-043AE","EPOCH":"2026-07-16T14:20:11.268096","CLASSIFICATION_TYPE":"U","MEAN_MOTION":13.15548114,"ECCENTRICITY":0.0002402,"INCLINATION":87.8989,"RA_OF_ASC_NODE":253.3312,"ARG_OF_PERICENTER":104.7894,"MEAN_ANOMALY":255.3502,"EPHEMERIS_TYPE":0,"NORAD_CAT_ID":56074,"ELEMENT_SET_NO":999,"REV_AT_EPOCH":16027,"BSTAR":0.00047659,"MEAN_MOTION_DOT":0.00000192,"MEAN_MOTION_DDOT":0}]}
