ONEWEB-0558             
1 56059U 23043P   26197.58721264 -.00000036  00000+0 -11952-3 0  9998
2 56059  87.9235 238.1274 0002423  94.7702 265.3709 13.21825560162125
ONEWEB-0559             
1 56060U 23043Q   26197.65113478 -.00000024  00000+0 -90125-4 0  9997
2 56060  87.9235 238.1100 0002236 100.0722 260.0664 13.21824400162146
ONEWEB-0566             
1 56061U 23043R   26197.64440725 -.00000046  00000+0 -14211-3 0  9990
2 56061  87.9235 238.1092 0002335 102.0193 258.1202 13.21824485162128
ONEWEB-0568             
1 56062U 23043S   26197.57375264  .00000001  00000+0 -30791-4 0  9990
2 56062  87.9077 222.9337 0002107  85.3653 274.7719 13.16596022162840
ONEWEB-0574             
1 56063U 23043T   26197.63769024 -.00000039  00000+0 -12550-3 0  9993
2 56063  87.9240 238.1155 0001895  94.2654 265.8696 13.21825885162161
ONEWEB-0575             
1 56064U 23043U   26197.56741532 -.00000094  00000+0 -27879-3 0  9991
2 56064  87.9077 222.9312 0001742  84.2347 275.8982 13.16595261162834
ONEWEB-0576             
1 56065U 23043V   26197.62440707 -.00000073  00000+0 -22463-3 0  9990
2 56065  87.9083 222.9287 0001890  89.0121 271.1226 13.16595604162831
ONEWEB-0577             
1 56066U 23043W   26197.63074822 -.00000021  00000+0 -89246-4 0  9999
2 56066  87.9081 222.9249 0001333  83.6989 276.4294 13.16595819162866
ONEWEB-0578             
1 56067U 23043X   26197.62423157  .00000034  00000+0  50066-4 0  9998
2 56067  87.9238 238.1147 0002119  87.4813 272.6563 13.21826311162124
ONEWEB-0579             
1 56068U 23043Y   26197.61579610 -.00000194  00000+0 -50028-3 0  9990
2 56068  87.9239 238.1147 0002076 102.6737 257.4629 13.21825660162134
ONEWEB-0581             
1 56069U 23043Z   26197.56108294 -.00000068  00000+0 -21150-3 0  9995
2 56069  87.9071 222.9493 0001509  90.8330 269.2973 13.16595471162828
ONEWEB-0609             
1 56070U 23043AA  26197.61557046  .00000143  00000+0  34694-3 0  9995
2 56070  87.8981 253.3472 0002127  96.9499 263.1873 13.15547344160302
ONEWEB-0613             
1 56071U 23043AB  26197.61319521  .00000147  00000+0  35762-3 0  9991
2 56071  87.8982 253.3603 0002213 103.8154 256.3223 13.15548219160307
ONEWEB-0630             
1 56072U 23043AC  26197.60843505  .00000182  00000+0  45018-3 0  9999
2 56072  87.8989 253.3347 0002154 103.4475 256.6896 13.15549580160295
ONEWEB-0632             
1 56073U 23043AD  26197.52763605 -.00000241  00000+0 -67429-3 0  9991
2 56073  87.8968 253.3657 0001940  98.4159 261.7191 13.15548895160283
ONEWEB-0633             
1 56074U 23043AE  26197.59735264  .00000192  00000+0  47659-3 0  9995
2 56074  87.8989 253.3312 0002402 104.7894 255.3502 13.15548114160274
